ONEWEB-0517             
1 54135U 22138Y   23237.26404080  .00000122  00000+0  27254-3 0  9992
2 54135  87.9243 149.3306 0001638  84.3567 275.7752 13.19724030 42258
ONEWEB-0518             
1 54136U 22138Z   23236.29739237  .00000066  00000+0  13356-3 0  9995
2 54136  87.9246 149.5205 0001744  75.7861 284.3465 13.19725099 41253
ONEWEB-0519             
1 54137U 22138AA  23236.32264674 -.00000264  00000+0 -69240-3 0  9993
2 54137  87.9281 149.5108 0001522  95.7738 264.3568 13.19726112 41264
ONEWEB-0520             
1 54138U 22138AB  23236.28246799  .00013854  00000+0  34457-1 0  9994
2 54138  87.9245 149.5336 0001960  88.5108 271.6250 13.19846910 41241
ONEWEB-0521             
1 54139U 22138AC  23236.31432126 -.00006496  00000+0 -16285-1 0  9995
2 54139  87.9287 149.5104 0001474  69.5493 290.5797 13.19666258 41192
ONEWEB-0522             
1 54140U 22138AD  23237.28061077  .00018991  00000+0  47234-1 0  9996
2 54140  87.9290 149.3220 0002368  79.0833 281.0566 13.19827221 42236
ONEWEB-0523             
1 54141U 22138AE  23237.07194667  .00000026  00000+0  31641-4 0  9994
2 54141  87.9150 118.9456 0002601  52.7986 307.3384 13.20773405 44599
ONEWEB-0524             
1 54142U 22138AF  23236.22601544  .00000012  00000+0 -25293-5 0  9991
2 54142  87.9253 119.0719 0003051  78.6262 281.5214 13.20772789 43613
